NORAD_CAT_ID,OBJECT_NAME,OBJECT_TYPE,EPOCH,MEAN_MOTION,ECCENTRICITY,INCLINATION,RA_OF_ASC_NODE,ARG_OF_PERICENTER,MEAN_ANOMALY,BSTAR,MEAN_MOTION_DOT,MEAN_MOTION_DDOT,TLE_LINE0,TLE_LINE1,TLE_LINE2,SEMIMAJOR_AXIS,PERIOD,APOGEE,PERIGEE,DECAYED
49168.0,STARLINK-3101,PAYLOAD,2024-07-23 09:29:40,14.98330853,0.0003077,70.0016,332.8696,273.4896,86.5911,0.00010451,1.154e-05,0.0,0 STARLINK-3101,1 49168U 21082AQ  24205.39560934  .00001154  00000-0  10451-3 0  9998,2 49168  70.0016 332.8696 0003077 273.4896  86.5911 14.98330853158656,6950.19,96.107,574.194,569.917,0.0
49168.0,STARLINK-3101,PAYLOAD,2024-07-23 19:06:29,14.98331496,0.0003178,70.0015,331.8597,275.0436,85.036,8.7943e-05,9.57e-06,0.0,0 STARLINK-3101,1 49168U 21082AQ  24205.79616923  .00000957  00000-0  87943-4 0  9993,2 49168  70.0015 331.8597 0003178 275.0436  85.0360 14.98331496158717,6950.188,96.107,574.262,569.844,0.0
49168.0,STARLINK-3101,PAYLOAD,2024-07-24 09:31:41,14.98329209,0.0002906,70.0018,330.3466,267.7706,92.312,-6.236e-06,-1.67e-06,0.0,0 STARLINK-3101,1 49168U 21082AQ  24206.39701172 -.00000167  00000-0 -62360-5 0  9993,2 49168  70.0018 330.3466 0002906 267.7706  92.3120 14.98329209158809,6950.195,96.107,574.08,570.041,0.0
49168.0,STARLINK-3101,PAYLOAD,2024-07-25 09:33:42,14.98332388,0.0002989,70.0017,327.82,269.4813,90.6003,3.7523e-05,3.55e-06,0.0,0 STARLINK-3101,1 49168U 21082AQ  24207.39840865  .00000355  00000-0  37523-4 0  9996,2 49168  70.0017 327.8200 0002989 269.4813  90.6003 14.98332388158953,6950.186,96.107,574.128,569.973,0.0
49168.0,STARLINK-3101,PAYLOAD,2024-07-25 17:34:22,14.98335799,0.0002635,70.0011,326.9804,255.8619,104.2248,0.00010764,1.192e-05,0.0,0 STARLINK-3101,1 49168U 21082AQ  24207.73220320  .00001192  00000-0  10764-3 0  9999,2 49168  70.0011 326.9804 0002635 255.8619 104.2248 14.98335799159007,6950.175,96.107,573.871,570.209,0.0
49168.0,STARLINK-3101,PAYLOAD,2024-07-26 09:35:42,14.98334683,0.0002601,70.0024,325.294,264.1081,95.9782,6.3012e-05,6.59e-06,0.0,0 STARLINK-3101,1 49168U 21082AQ  24208.39980260  .00000659  00000-0  63012-4 0  9990,2 49168  70.0024 325.2940 0002601 264.1081  95.9782 14.98334683159104,6950.178,96.107,573.851,570.236,0.0
49168.0,STARLINK-3101,PAYLOAD,2024-07-26 14:24:06,14.98337319,0.0002948,70.0021,324.7886,270.6036,89.4786,4.1461e-05,4.02e-06,0.0,0 STARLINK-3101,1 49168U 21082AQ  24208.60008070  .00000402  00000-0  41461-4 0  9994,2 49168  70.0021 324.7886 0002948 270.6036  89.4786 14.98337319159134,6950.17,96.107,574.084,569.986,0.0
49168.0,STARLINK-3101,PAYLOAD,2024-07-27 01:37:03,14.98328953,0.0002987,70.0014,323.6113,270.9875,89.0942,1.3618e-05,7e-07,0.0,0 STARLINK-3101,1 49168U 21082AQ  24209.06740578  .00000070  00000-0  13618-4 0  9995,2 49168  70.0014 323.6113 0002987 270.9875  89.0942 14.98328953159206,6950.196,96.107,574.137,569.985,0.0
49168.0,STARLINK-3101,PAYLOAD,2024-07-27 09:37:44,14.98321099,0.0002874,70.0019,322.77,270.8074,89.2756,-7.4448e-05,-9.81e-06,0.0,0 STARLINK-3101,1 49168U 21082AQ  24209.40121419 -.00000981  00000-0 -74448-4 0  9991,2 49168  70.0019 322.7700 0002874 270.8074  89.2756 14.98321099159252,6950.22,96.108,574.083,570.088,0.0
49168.0,STARLINK-3101,PAYLOAD,2024-07-27 17:38:25,14.98326509,0.0002887,70.0018,321.928,271.7015,88.3813,-0.00010662,-1.365e-05,0.0,0 STARLINK-3101,1 49168U 21082AQ  24209.73501293 -.00001365  00000-0 -10662-3 0  9993,2 49168  70.0018 321.9280 0002887 271.7015  88.3813 14.98326509159305,6950.204,96.107,574.075,570.062,0.0
49168.0,STARLINK-3101,PAYLOAD,2024-07-28 11:15:53,14.98331835,0.0002915,70.0012,320.078,267.2559,92.8266,3.916e-05,3.74e-06,0.0,0 STARLINK-3101,1 49168U 21082AQ  24210.46936495  .00000374  00000-0  39160-4 0  9993,2 49168  70.0012 320.0780 0002915 267.2559  92.8266 14.98331835159411,6950.187,96.107,574.078,570.026,0.0
49168.0,STARLINK-3101,PAYLOAD,2024-07-28 17:40:25,14.98336493,0.0002924,70.0015,319.4053,269.778,90.3044,5.6783e-05,5.85e-06,0.0,0 STARLINK-3101,1 49168U 21082AQ  24210.73640121  .00000585  00000-0  56783-4 0  9995,2 49168  70.0015 319.4053 0002924 269.7780  90.3044 14.98336493159458,6950.173,96.107,574.07,570.006,0.0
49168.0,STARLINK-3101,PAYLOAD,2024-07-29 09:41:46,14.98324559,0.0002854,70.0014,317.7212,268.2397,91.8435,8.7331e-05,9.49e-06,0.0,0 STARLINK-3101,1 49168U 21082AQ  24211.40400834  .00000949  00000-0  87331-4 0  9992,2 49168  70.0014 317.7212 0002854 268.2397  91.8435 14.98324559159556,6950.21,96.107,574.058,570.091,0.0
49168.0,STARLINK-3101,PAYLOAD,2024-07-30 00:06:58,14.98335737,0.000265,70.0018,316.2062,269.9358,90.1497,5.754e-05,5.94e-06,0.0,0 STARLINK-3101,1 49168U 21082AQ  24212.00484255  .00000594  00000-0  57540-4 0  9993,2 49168  70.0018 316.2062 0002650 269.9358  90.1497 14.98335737159646,6950.175,96.107,573.882,570.198,0.0
49168.0,STARLINK-3101,PAYLOAD,2024-07-30 12:56:01,14.9834866,0.0002858,70.0013,314.8599,266.9245,93.1587,0.0001527,1.73e-05,0.0,0 STARLINK-3101,1 49168U 21082AQ  24212.53890710  .00001730  00000-0  15270-3 0  9994,2 49168  70.0013 314.8599 0002858 266.9245  93.1587 14.98348660159723,6950.135,96.106,573.987,570.014,0.0
49168.0,STARLINK-3101,PAYLOAD,2024-07-30 22:32:49,14.98351687,0.0003024,70.0007,313.8494,264.6863,95.3951,0.00010563,1.168e-05,0.0,0 STARLINK-3101,1 49168U 21082AQ  24212.93946118  .00001168  00000-0  10563-3 0  9997,2 49168  70.0007 313.8494 0003024 264.6863  95.3951 14.98351687159784,6950.126,96.106,574.093,569.889,0.0
49168.0,STARLINK-3101,PAYLOAD,2024-07-31 12:58:05,14.98311699,0.0003032,70.0008,312.3354,263.5813,96.5001,-0.0002469,-3.036e-05,0.0,0 STARLINK-3101,1 49168U 21082AQ  24213.54033921 -.00003036  00000-0 -24690-3 0  9998,2 49168  70.0008 312.3354 0003032 263.5813  96.5001 14.98311699159874,6950.249,96.108,574.222,570.007,0.0
49168.0,STARLINK-3101,PAYLOAD,2024-07-31 14:34:13,14.98310495,0.0002974,70.0007,312.1663,263.8506,96.2314,-0.00023698,-2.918e-05,0.0,0 STARLINK-3101,1 49168U 21082AQ  24213.60710050 -.00002918  00000-0 -23698-3 0  9995,2 49168  70.0007 312.1663 0002974 263.8506  96.2314 14.98310495159888,6950.253,96.108,574.185,570.051,0.0
49168.0,STARLINK-3101,PAYLOAD,2024-07-31 16:10:21,14.98312566,0.0002917,70.0008,311.9981,264.5405,95.5421,-0.00020836,-2.577e-05,0.0,0 STARLINK-3101,1 49168U 21082AQ  24213.67385917 -.00002577  00000-0 -20836-3 0  9994,2 49168  70.0008 311.9981 0002917 264.5405  95.5421 14.98312566159895,6950.247,96.108,574.139,570.084,0.0
49168.0,STARLINK-3101,PAYLOAD,2024-08-01 00:11:01,14.98325556,0.0002925,70.0007,311.1566,264.9795,95.1031,-0.00022777,-2.809e-05,0.0,0 STARLINK-3101,1 49168U 21082AQ  24214.00765470 -.00002809  00000-0 -22777-3 0  9992,2 49168  70.0007 311.1566 0002925 264.9795  95.1031 14.98325556159942,6950.207,96.107,574.105,570.039,0.0
49168.0,STARLINK-3101,PAYLOAD,2024-08-01 13:00:04,14.98339956,0.000315,70.0003,309.8099,265.3598,94.7202,-5.5591e-05,-7.56e-06,0.0,0 STARLINK-3101,1 49168U 21082AQ  24214.54172066 -.00000756  00000-0 -55591-4 0  9994,2 49168  70.0003 309.8099 0003150 265.3598  94.7202 14.98339956160025,6950.162,96.106,574.216,569.838,0.0
49168.0,STARLINK-3101,PAYLOAD,2024-08-01 16:12:20,14.98344019,0.0003074,70.0003,309.4734,266.7,93.3807,-1.5581e-05,-2.79e-06,0.0,0 STARLINK-3101,1 49168U 21082AQ  24214.67523690 -.00000279  00000-0 -15581-4 0  9996,2 49168  70.0003 309.4734 0003074 266.7000  93.3807 14.98344019160049,6950.15,96.106,574.151,569.878,0.0
49168.0,STARLINK-3101,PAYLOAD,2024-08-02 00:13:01,14.9833254,0.0002839,70.0006,308.6302,274.7666,85.3168,4.6862e-05,4.66e-06,0.0,0 STARLINK-3101,1 49168U 21082AQ  24215.00904253  .00000466  00000-0  46862-4 0  9994,2 49168  70.0006 308.6302 0002839 274.7666  85.3168 14.98332540160091,6950.185,96.107,574.023,570.077,0.0
49168.0,STARLINK-3101,PAYLOAD,2024-08-02 13:02:07,14.98315315,0.0003089,70.0002,307.2849,263.838,96.2427,0.00025276,2.923e-05,0.0,0 STARLINK-3101,1 49168U 21082AQ  24215.54313677  .00002923  00000-0  25276-3 0  9992,2 49168  70.0002 307.2849 0003089 263.8380  96.2427 14.98315315160177,6950.238,96.108,574.25,569.956,0.0
49168.0,STARLINK-3101,PAYLOAD,2024-08-02 14:38:15,14.98315379,0.0003201,70.0002,307.1174,264.3983,95.6811,0.00024685,2.852e-05,0.0,0 STARLINK-3101,1 49168U 21082AQ  24215.60989812  .00002852  00000-0  24685-3 0  9993,2 49168  70.0002 307.1174 0003201 264.3983  95.6811 14.98315379160189,6950.238,96.108,574.328,569.878,0.0
49168.0,STARLINK-3101,PAYLOAD,2024-08-02 16:14:23,14.98317476,0.0003199,70.0002,306.9491,264.3264,95.753,0.00027664,3.208e-05,0.0,0 STARLINK-3101,1 49168U 21082AQ  24215.67665789  .00003208  00000-0  27664-3 0  9990,2 49168  70.0002 306.9491 0003199 264.3264  95.7530 14.98317476160196,6950.232,96.108,574.32,569.873,0.0
49168.0,STARLINK-3101,PAYLOAD,2024-08-03 13:04:06,14.98345827,0.0003206,70.0017,304.7602,266.3383,93.7409,0.00027438,3.184e-05,0.0,0 STARLINK-3101,1 49168U 21082AQ  24216.54452287  .00003184  00000-0  27438-3 0  9996,2 49168  70.0017 304.7602 0003206 266.3383  93.7409 14.98345827160324,6950.144,96.106,574.237,569.781,0.0
49168.0,STARLINK-3101,PAYLOAD,2024-08-03 14:40:14,14.98348103,0.0003192,70.0017,304.5921,266.1352,93.9442,0.00031616,3.683e-05,0.0,0 STARLINK-3101,1 49168U 21082AQ  24216.61128120  .00003683  00000-0  31616-3 0  9997,2 49168  70.0017 304.5921 0003192 266.1352  93.9442 14.98348103160334,6950.137,96.106,574.22,569.783,0.0
49168.0,STARLINK-3101,PAYLOAD,2024-08-03 16:16:22,14.98349937,0.0003196,70.0018,304.4238,266.3751,93.7043,0.00034722,4.055e-05,0.0,0 STARLINK-3101,1 49168U 21082AQ  24216.67803976  .00004055  00000-0  34722-3 0  9997,2 49168  70.0018 304.4238 0003196 266.3751  93.7043 14.98349937160346,6950.131,96.106,574.218,569.775,0.0
49168.0,STARLINK-3101,PAYLOAD,2024-08-04 05:05:27,14.98332382,0.0002651,70.0037,303.0782,268.5203,91.5653,0.00022174,2.554e-05,0.0,0 STARLINK-3101,1 49168U 21082AQ  24217.21212788  .00002554  00000-0  22174-3 0  9993,2 49168  70.0037 303.0782 0002651 268.5203  91.5653 14.98332382160425,6950.186,96.107,573.893,570.208,0.0
